[{"OBJECT_NAME":"STARLINK-34444","OBJECT_ID":"2025-126AB","EPOCH":"2026-03-09T22:10:26.475456","MEAN_MOTION":14.98337821,"ECCENTRICITY":0.00025533,"INCLINATION":70.0022,"RA_OF_ASC_NODE":33.9935,"ARG_OF_PERICENTER":271.8601,"MEAN_ANOMALY":88.2266,"EPHEMERIS_TYPE":0,"CLASSIFICATION_TYPE":"U","NORAD_CAT_ID":64369,"ELEMENT_SET_NO":999,"REV_AT_EPOCH":4071,"BSTAR":0.0004657108,"MEAN_MOTION_DOT":5.469e-5,"MEAN_MOTION_DDOT":0},{"OBJECT_NAME":"CZ-4B DEB","OBJECT_ID":"1999-057SZ","EPOCH":"2026-03-02T21:23:50.470368","MEAN_MOTION":14.9551257,"ECCENTRICITY":0.0057647,"INCLINATION":98.7518,"RA_OF_ASC_NODE":85.7766,"ARG_OF_PERICENTER":19.8773,"MEAN_ANOMALY":340.4672,"EPHEMERIS_TYPE":0,"CLASSIFICATION_TYPE":"U","NORAD_CAT_ID":39052,"ELEMENT_SET_NO":999,"REV_AT_EPOCH":72291,"BSTAR":0.0001718,"MEAN_MOTION_DOT":1.891e-5,"MEAN_MOTION_DDOT":0}]
